{"fetched_at":"2026-07-21T17:53:07.094Z","source":"https://celestrak.org/NORAD/elements/gp.php?GROUP=planet&FORMAT=JSON","constellation":"skysat","records":[{"OBJECT_NAME":"SKYSAT-A","OBJECT_ID":"2013-066C","EPOCH":"2026-07-21T02:49:14.856384","CLASSIFICATION_TYPE":"U","MEAN_MOTION":15.13136302,"ECCENTRICITY":0.00210244,"INCLINATION":97.3797,"RA_OF_ASC_NODE":250.4333,"ARG_OF_PERICENTER":192.3397,"MEAN_ANOMALY":167.7323,"EPHEMERIS_TYPE":0,"NORAD_CAT_ID":39418,"ELEMENT_SET_NO":999,"REV_AT_EPOCH":69361,"BSTAR":0.00011144325,"MEAN_MOTION_DOT":0.0000192,"MEAN_MOTION_DDOT":0},{"OBJECT_NAME":"SKYSAT-B","OBJECT_ID":"2014-037D","EPOCH":"2026-07-21T03:35:23.112384","CLASSIFICATION_TYPE":"U","MEAN_MOTION":14.88101239,"ECCENTRICITY":0.0005991,"INCLINATION":98.3858,"RA_OF_ASC_NODE":163.0566,"ARG_OF_PERICENTER":154.4233,"MEAN_ANOMALY":205.728,"EPHEMERIS_TYPE":0,"NORAD_CAT_ID":40072,"ELEMENT_SET_NO":999,"REV_AT_EPOCH":65101,"BSTAR":0.000095543822,"MEAN_MOTION_DOT":0.00000818,"MEAN_MOTION_DDOT":0},{"OBJECT_NAME":"SKYSAT-C1","OBJECT_ID":"2016-040C","EPOCH":"2026-07-21T01:55:10.782624","CLASSIFICATION_TYPE":"U","MEAN_MOTION":15.36809315,"ECCENTRICITY":0.00007235,"INCLINATION":96.9554,"RA_OF_ASC_NODE":231.9715,"ARG_OF_PERICENTER":194.3527,"MEAN_ANOMALY":165.7699,"EPHEMERIS_TYPE":0,"NORAD_CAT_ID":41601,"ELEMENT_SET_NO":999,"REV_AT_EPOCH":56307,"BSTAR":0.00018200614,"MEAN_MOTION_DOT":0.00006472,"MEAN_MOTION_DDOT":0},{"OBJECT_NAME":"SKYSAT-C4","OBJECT_ID":"2016-058B","EPOCH":"2026-07-21T07:25:47.800992","CLASSIFICATION_TYPE":"U","MEAN_MOTION":15.49568378,"ECCENTRICITY":0.00035266,"INCLINATION":96.9175,"RA_OF_ASC_NODE":222.6746,"ARG_OF_PERICENTER":109.4155,"MEAN_ANOMALY":250.7479,"EPHEMERIS_TYPE":0,"NORAD_CAT_ID":41771,"ELEMENT_SET_NO":999,"REV_AT_EPOCH":55075,"BSTAR":0.00024183829,"MEAN_MOTION_DOT":0.00013269,"MEAN_MOTION_DDOT":0},{"OBJECT_NAME":"SKYSAT-C5","OBJECT_ID":"2016-058C","EPOCH":"2026-07-21T01:59:41.098848","CLASSIFICATION_TYPE":"U","MEAN_MOTION":15.33768983,"ECCENTRICITY":0.00031855,"INCLINATION":97.0452,"RA_OF_ASC_NODE":241.1966,"ARG_OF_PERICENTER":146.5014,"MEAN_ANOMALY":213.6431,"EPHEMERIS_TYPE":0,"NORAD_CAT_ID":41772,"ELEMENT_SET_NO":999,"REV_AT_EPOCH":54894,"BSTAR":0.00016459747,"MEAN_MOTION_DOT":0.00005301,"MEAN_MOTION_DDOT":0},{"OBJECT_NAME":"SKYSAT-C2","OBJECT_ID":"2016-058D","EPOCH":"2026-07-21T01:25:07.350240","CLASSIFICATION_TYPE":"U","MEAN_MOTION":15.42765503,"ECCENTRICITY":0.00007269,"INCLINATION":97.0165,"RA_OF_ASC_NODE":222.8935,"ARG_OF_PERICENTER":306.0371,"MEAN_ANOMALY":54.081,"EPHEMERIS_TYPE":0,"NORAD_CAT_ID":41773,"ELEMENT_SET_NO":999,"REV_AT_EPOCH":55027,"BSTAR":0.00020539646,"MEAN_MOTION_DOT":0.000089,"MEAN_MOTION_DDOT":0},{"OBJECT_NAME":"SKYSAT-C3","OBJECT_ID":"2016-058E","EPOCH":"2026-07-21T00:43:44.509728","CLASSIFICATION_TYPE":"U","MEAN_MOTION":15.53879483,"ECCENTRICITY":0.00027793,"INCLINATION":96.9,"RA_OF_ASC_NODE":231.6037,"ARG_OF_PERICENTER":125.8983,"MEAN_ANOMALY":234.253,"EPHEMERIS_TYPE":0,"NORAD_CAT_ID":41774,"ELEMENT_SET_NO":999,"REV_AT_EPOCH":55136,"BSTAR":0.00026757403,"MEAN_MOTION_DOT":0.00017145,"MEAN_MOTION_DDOT":0},{"OBJECT_NAME":"SKYSAT-C11","OBJECT_ID":"2017-068A","EPOCH":"2026-07-21T03:29:09.163680","CLASSIFICATION_TYPE":"U","MEAN_MOTION":15.59545665,"ECCENTRICITY":0.00014875,"INCLINATION":97.4387,"RA_OF_ASC_NODE":352.5062,"ARG_OF_PERICENTER":151.5887,"MEAN_ANOMALY":208.5451,"EPHEMERIS_TYPE":0,"NORAD_CAT_ID":42987,"ELEMENT_SET_NO":999,"REV_AT_EPOCH":48853,"BSTAR":0.00029602854,"MEAN_MOTION_DOT":0.00023423,"MEAN_MOTION_DDOT":0},{"OBJECT_NAME":"SKYSAT-C10","OBJECT_ID":"2017-068B","EPOCH":"2026-07-21T06:10:28.353504","CLASSIFICATION_TYPE":"U","MEAN_MOTION":15.35193975,"ECCENTRICITY":0.00015474,"INCLINATION":97.4542,"RA_OF_ASC_NODE":339.4579,"ARG_OF_PERICENTER":110.1118,"MEAN_ANOMALY":250.0292,"EPHEMERIS_TYPE":0,"NORAD_CAT_ID":42988,"ELEMENT_SET_NO":999,"REV_AT_EPOCH":48758,"BSTAR":0.00024107289,"MEAN_MOTION_DOT":0.00008155,"MEAN_MOTION_DDOT":0},{"OBJECT_NAME":"SKYSAT-C9","OBJECT_ID":"2017-068C","EPOCH":"2026-07-21T02:44:00.700800","CLASSIFICATION_TYPE":"U","MEAN_MOTION":15.42303983,"ECCENTRICITY":0.00081292,"INCLINATION":97.4465,"RA_OF_ASC_NODE":340.5776,"ARG_OF_PERICENTER":25.0277,"MEAN_ANOMALY":335.1363,"EPHEMERIS_TYPE":0,"NORAD_CAT_ID":42989,"ELEMENT_SET_NO":999,"REV_AT_EPOCH":48798,"BSTAR":0.00021898155,"MEAN_MOTION_DOT":0.00009351,"MEAN_MOTION_DDOT":0},{"OBJECT_NAME":"SKYSAT-C8","OBJECT_ID":"2017-068D","EPOCH":"2026-07-20T21:58:53.507712","CLASSIFICATION_TYPE":"U","MEAN_MOTION":15.3756072,"ECCENTRICITY":0.00013088,"INCLINATION":97.456,"RA_OF_ASC_NODE":339.0428,"ARG_OF_PERICENTER":107.1679,"MEAN_ANOMALY":252.9709,"EPHEMERIS_TYPE":0,"NORAD_CAT_ID":42990,"ELEMENT_SET_NO":999,"REV_AT_EPOCH":48749,"BSTAR":0.00020151303,"MEAN_MOTION_DOT":0.00007342,"MEAN_MOTION_DDOT":0},{"OBJECT_NAME":"SKYSAT-C7","OBJECT_ID":"2017-068E","EPOCH":"2026-07-21T04:06:05.059296","CLASSIFICATION_TYPE":"U","MEAN_MOTION":15.37514061,"ECCENTRICITY":0.00051456,"INCLINATION":97.4571,"RA_OF_ASC_NODE":340.2937,"ARG_OF_PERICENTER":0.329,"MEAN_ANOMALY":359.7957,"EPHEMERIS_TYPE":0,"NORAD_CAT_ID":42991,"ELEMENT_SET_NO":999,"REV_AT_EPOCH":48759,"BSTAR":0.00020775377,"MEAN_MOTION_DOT":0.00007563,"MEAN_MOTION_DDOT":0},{"OBJECT_NAME":"SKYSAT-C6","OBJECT_ID":"2017-068F","EPOCH":"2026-07-21T06:12:34.220160","CLASSIFICATION_TYPE":"U","MEAN_MOTION":15.3423471,"ECCENTRICITY":0.00049139,"INCLINATION":97.461,"RA_OF_ASC_NODE":340.2089,"ARG_OF_PERICENTER":73.737,"MEAN_ANOMALY":286.4413,"EPHEMERIS_TYPE":0,"NORAD_CAT_ID":42992,"ELEMENT_SET_NO":999,"REV_AT_EPOCH":48754,"BSTAR":0.0002082094,"MEAN_MOTION_DOT":0.00006821,"MEAN_MOTION_DDOT":0},{"OBJECT_NAME":"SKYSAT-C12","OBJECT_ID":"2018-099AR","EPOCH":"2026-07-21T00:00:21.098016","CLASSIFICATION_TYPE":"U","MEAN_MOTION":15.49913041,"ECCENTRICITY":0.00048833,"INCLINATION":96.9259,"RA_OF_ASC_NODE":223.8993,"ARG_OF_PERICENTER":57.5086,"MEAN_ANOMALY":302.6638,"EPHEMERIS_TYPE":0,"NORAD_CAT_ID":43797,"ELEMENT_SET_NO":999,"REV_AT_EPOCH":42709,"BSTAR":0.00023645637,"MEAN_MOTION_DOT":0.00013133,"MEAN_MOTION_DDOT":0}]}
